ADRAS-J                 
1 58992U 24034A   24237.87540458  .00006440  00000+0  58406-3 0  9994
2 58992  98.2182 214.0732 0043869 180.0440 180.0783 14.94963483 28122
